{
  "norad_id": 63710,
  "name": "STARLINK-33920",
  "history": [
    {
      "epoch": "2026-03-28T19:24:08.957664",
      "apogee_km": 475.91487282433536,
      "perigee_km": 474.46402361524724,
      "latitude_deg": 46.57765712738065,
      "longitude_deg": -91.39004704006948,
      "semi_major_axis_km": 6853.326448219791,
      "eccentricity": 0.00010585,
      "inclination_deg": 53.158,
      "raan_deg": 130.9737,
      "arg_perigee_deg": 75.2288,
      "mean_anomaly_deg": 284.883,
      "mean_motion_rev_day": 15.30208581
    }
  ]
}